     2              NAVIGATION DATA                         RINEX VERSION / TYPE
CCRINEXN V1.6.0 UX  CDDIS               10-OCT-16 15:33     PGM / RUN BY / DATE 
IGS BROADCAST EPHEMERIS FILE                                COMMENT             
    0.1583D-07  0.0000D+00 -0.1192D-06  0.0000D+00          ION ALPHA           
    0.1106D+06  0.0000D+00 -0.2621D+06  0.6554D+05          ION BETA            
   -0.931322574615D-09-0.710542735760D-14   147456     1918 DELTA-UTC: A0,A1,T,W
    17                                                      LEAP SECONDS        
                                                            END OF HEADER       
22 16 10  9 12  0  0.0 0.223418232053D-03-0.103455022327D-10 0.000000000000D+00
    0.860000000000D+02 0.446875000000D+01 0.546772775281D-08 0.211736941403D+01
   -0.149011611938D-07 0.739218282979D-02 0.799447298050D-05 0.515370459557D+04
    0.432000000000D+05 0.521540641785D-07 0.262433273909D+01-0.167638063431D-06
    0.923364927318D+00 0.202437500000D+03-0.186019832404D+01-0.834784772137D-08
    0.846463830045D-10 0.100000000000D+01 0.191800000000D+04 0.000000000000D+00
    0.200000000000D+01 0.000000000000D+00-0.176951289177D-07 0.860000000000D+02
    0.391200000000D+05 0.400000000000D+01 0.000000000000D+00 0.000000000000D+00
23 16 10  9 12  0  0.0-0.192759558558D-03-0.136424205266D-11 0.000000000000D+00
    0.330000000000D+02 0.896875000000D+01 0.499306512406D-08 0.136162069557D+01
    0.599771738052D-06 0.111325571779D-01 0.728480517864D-05 0.515360061455D+04
    0.432000000000D+05-0.149011611938D-06-0.257966807854D+01 0.558793544769D-07
    0.945541419515D+00 0.234906250000D+03-0.252659973774D+01-0.834749056363D-08
   -0.329656588663D-09 0.100000000000D+01 0.191800000000D+04 0.000000000000D+00
    0.200000000000D+01 0.000000000000D+00-0.200234353542D-07 0.330000000000D+02
    0.360180000000D+05 0.400000000000D+01 0.000000000000D+00 0.000000000000D+00
24 16 10  9 12  0  0.0-0.243200920522D-04-0.568434188608D-12 0.000000000000D+00
    0.810000000000D+02 0.446250000000D+02 0.470626746350D-08 0.814760554550D+00
    0.222958624363D-05 0.476287840866D-02 0.824034214020D-05 0.515372821808D+04
    0.432000000000D+05 0.372529029846D-08-0.155438416924D+01 0.763684511185D-07
    0.947692753196D+00 0.215031250000D+03 0.390289557607D+00-0.820498462769D-08
   -0.166435504135D-09 0.100000000000D+01 0.191800000000D+04 0.000000000000D+00
    0.200000000000D+01 0.000000000000D+00 0.232830643654D-08 0.810000000000D+02
    0.407400000000D+05 0.400000000000D+01 0.000000000000D+00 0.000000000000D+00
25 16 10  9 12  0  0.0-0.260443426669D-03-0.693489710102D-11 0.000000000000D+00
    0.760000000000D+02 0.416562500000D+02 0.427446389395D-08-0.129522453471D+01
    0.222027301788D-05 0.561461271718D-02 0.559724867344D-05 0.515369083595D+04
    0.432000000000D+05 0.154599547386D-06-0.478212960312D+00 0.186264514923D-08
    0.978372020779D+00 0.280781250000D+03 0.777732651138D+00-0.809390865442D-08
    0.206080014165D-09 0.100000000000D+01 0.191800000000D+04 0.000000000000D+00
    0.200000000000D+01 0.000000000000D+00 0.558793544769D-08 0.760000000000D+02
    0.360000000000D+05 0.000000000000D+00 0.000000000000D+00 0.000000000000D+00
26 16 10  9 12  0  0.0-0.483840703964D-03-0.625277607469D-11 0.000000000000D+00
    0.240000000000D+02 0.501250000000D+02 0.462376402690D-08-0.170098433982D+01
    0.238232314587D-05 0.105395994615D-02 0.597909092903D-05 0.515359264183D+04
    0.432000000000D+05-0.931322574616D-08-0.489561067475D+00-0.502914190292D-07
    0.960262544709D+00 0.265187500000D+03-0.143738755479D+00-0.826427281156D-08
    0.216080429189D-09 0.100000000000D+01 0.191800000000D+04 0.000000000000D+00
    0.200000000000D+01 0.000000000000D+00 0.698491930962D-08 0.240000000000D+02
    0.360000000000D+05 0.400000000000D+01 0.000000000000D+00 0.000000000000D+00
27 16 10  9 12  0  0.0 0.149623025209D-03 0.500222085975D-11 0.000000000000D+00
    0.480000000000D+02-0.466875000000D+02 0.446875757026D-08 0.265003863233D+01
   -0.237859785557D-05 0.383393093944D-02 0.491924583912D-05 0.515365310860D+04
    0.432000000000D+05-0.558793544769D-07 0.561860096940D+00 0.745058059692D-08
    0.972744834704D+00 0.291156250000D+03 0.339144425972D+00-0.810283751571D-08
    0.160720980388D-10 0.100000000000D+01 0.191800000000D+04 0.000000000000D+00
    0.200000000000D+01 0.000000000000D+00 0.186264514923D-08 0.480000000000D+02
    0.360000000000D+05 0.400000000000D+01 0.000000000000D+00 0.000000000000D+00
28 16 10  9 12  0  0.0 0.558018218726D-03 0.284217094304D-11 0.000000000000D+00
    0.430000000000D+02 0.297812500000D+02 0.386194657986D-08-0.278912074841D+01
    0.146031379700D-05 0.199462298770D-01 0.538304448128D-05 0.515363640976D+04
    0.432000000000D+05 0.311061739922D-06-0.402112549922D+00 0.158324837685D-06
    0.989528775331D+00 0.285218750000D+03-0.160931581709D+01-0.759353058674D-08
    0.241795786051D-09 0.100000000000D+01 0.191800000000D+04 0.000000000000D+00
    0.400000000000D+01 0.000000000000D+00-0.107102096081D-07 0.430000000000D+02
    0.360000000000D+05 0.400000000000D+01 0.000000000000D+00 0.000000000000D+00
29 16 10  9 12  0  0.0 0.648281071335D-03-0.136424205266D-11 0.000000000000D+00
    0.800000000000D+02-0.562500000000D+02 0.437768234804D-08-0.163794389505D+01
   -0.279583036900D-05 0.505815609358D-03 0.568293035030D-05 0.515373963165D+04
    0.432000000000D+05 0.838190317154D-07 0.622394614240D+00 0.745058059692D-08
    0.978794049238D+00 0.278875000000D+03 0.858236529796D-01-0.816355433052D-08
   -0.239295681911D-10 0.100000000000D+01 0.191800000000D+04 0.000000000000D+00
    0.200000000000D+01 0.000000000000D+00-0.102445483208D-07 0.800000000000D+02
    0.360000000000D+05 0.400000000000D+01 0.000000000000D+00 0.000000000000D+00
30 16 10  9 12  0  0.0 0.153472647071D-03 0.136424205266D-11 0.000000000000D+00
    0.540000000000D+02 0.385312500000D+02 0.459769151231D-08-0.148803221337D+00
    0.207871198654D-05 0.239510182291D-02 0.776909291744D-05 0.515376709366D+04
    0.432000000000D+05 0.484287738800D-07-0.146262787436D+01 0.931322574616D-08
    0.950409604192D+00 0.223375000000D+03-0.312086196479D+01-0.818962684512D-08
   -0.450018745087D-10 0.100000000000D+01 0.191800000000D+04 0.000000000000D+00
    0.200000000000D+01 0.000000000000D+00 0.372529029846D-08 0.540000000000D+02
    0.360000000000D+05 0.400000000000D+01 0.000000000000D+00 0.000000000000D+00
31 16 10  9 12  0  0.0 0.243461690843D-03-0.216004991671D-11 0.000000000000D+00
    0.400000000000D+01 0.412500000000D+02 0.420731810883D-08-0.310675801694D+00
    0.210665166378D-05 0.837704481091D-02 0.879541039467D-05 0.515357053947D+04
    0.432000000000D+05 0.800937414169D-07-0.149491295054D+01-0.150874257088D-06
    0.969423584955D+00 0.209531250000D+03-0.375444540806D+00-0.803533470394D-08
   -0.971469037013D-10 0.100000000000D+01 0.191800000000D+04 0.000000000000D+00
    0.200000000000D+01 0.000000000000D+00-0.135041773319D-07 0.400000000000D+01
    0.395100000000D+05 0.400000000000D+01 0.000000000000D+00 0.000000000000D+00
32 16 10  9 12  0  0.0-0.147195067257D-03-0.155750967679D-10 0.000000000000D+00
    0.280000000000D+02 0.154687500000D+02 0.456947605130D-08 0.310618701661D+01
    0.869855284691D-06 0.625047949143D-03 0.725686550140D-05 0.515364809799D+04
    0.432000000000D+05 0.391155481338D-07-0.258158060986D+01 0.260770320892D-07
    0.959194103953D+00 0.237531250000D+03-0.238470688498D+01-0.804069206996D-08
   -0.148577617426D-09 0.100000000000D+01 0.191800000000D+04 0.000000000000D+00
    0.200000000000D+01 0.000000000000D+00 0.931322574616D-09 0.280000000000D+02
    0.360000000000D+05 0.400000000000D+01 0.000000000000D+00 0.000000000000D+00
 1 16 10  9 14  0  0.0 0.366447493434D-04 0.125055521494D-11 0.000000000000D+00
    0.350000000000D+02-0.630937500000D+02 0.449625871579D-08 0.154769992099D+01
   -0.312738120556D-05 0.592276279349D-02 0.929832458496D-05 0.515370654869D+04
    0.504000000000D+05-0.707805156708D-07 0.161971579827D+01 0.154599547386D-06
    0.965115721309D+00 0.203125000000D+03 0.560392627722D+00-0.803462038848D-08
    0.307155651409D-10 0.100000000000D+01 0.191800000000D+04 0.000000000000D+00
    0.200000000000D+01 0.000000000000D+00 0.512227416039D-08 0.350000000000D+02
    0.456900000000D+05 0.400000000000D+01 0.000000000000D+00 0.000000000000D+00
 2 16 10  9 14  0  0.0 0.542196445167D-03-0.511590769747D-11 0.000000000000D+00
    0.143000000000D+03-0.580625000000D+02 0.482877256633D-08 0.201517988438D+01
   -0.328756868839D-05 0.160048797261D-01 0.851973891258D-05 0.515365546417D+04
    0.504000000000D+05-0.122934579849D-06 0.157126246077D+01-0.394880771637D-06
    0.943939323799D+00 0.208656250000D+03-0.207965417758D+01-0.808140805165D-08
    0.560737642688D-10 0.100000000000D+01 0.191800000000D+04 0.000000000000D+00
    0.280000000000D+01 0.000000000000D+00-0.204890966415D-07 0.143000000000D+03
    0.469200000000D+05 0.400000000000D+01 0.000000000000D+00 0.000000000000D+00
 3 16 10  9 14  0  0.0-0.915541313589D-04-0.216004991671D-11 0.000000000000D+00
    0.390000000000D+02 0.662500000000D+01 0.472091093060D-08 0.349119087126D+00
    0.337138772011D-06 0.239048269577D-03 0.823475420475D-05 0.515360345650D+04
    0.504000000000D+05 0.260770320892D-07 0.266162312950D+01-0.353902578354D-07
    0.959716345227D+00 0.217093750000D+03 0.637327252518D+00-0.805676416800D-08
    0.878608026122D-10 0.100000000000D+01 0.191800000000D+04 0.000000000000D+00
    0.200000000000D+01 0.000000000000D+00 0.139698386192D-08 0.390000000000D+02
    0.444900000000D+05 0.400000000000D+01 0.000000000000D+00 0.000000000000D+00
